STARLINK-30826          
1 58188U 23167P   26033.19236892  .00000635  00000+0  62038-4 0  9999
2 58188  43.0035 338.9788 0000887 281.0408  79.0335 15.02536556125619
STARLINK-30796          
1 58189U 23167Q   26033.19569601  .00001343  00000+0  11449-3 0  9993
2 58189  43.0048 339.0028 0001325 268.5024  91.5667 15.02539178125615
STARLINK-30820          
1 58190U 23167R   26033.19902721  .00000638  00000+0  62299-4 0  9995
2 58190  43.0040 339.0239 0001082 277.4041  82.6678 15.02534231125619
STARLINK-30785          
1 58191U 23167S   26033.18570820  .00000665  00000+0  64300-4 0  9991
2 58191  43.0039 338.9286 0001093 277.2277  82.8441 15.02537564125611
STARLINK-30807          
1 58192U 23167T   26033.18905549  .00011636  00000+0  87537-3 0  9998
2 58192  43.0029 338.9512 0000935 256.3989 103.6749 15.02519348125618
STARLINK-30822          
1 58193U 23167U   26033.18237401  .00000547  00000+0  55528-4 0  9999
2 58193  43.0038 338.9029 0000926 268.4430  91.6307 15.02542179125611
STARLINK-30830          
1 58194U 23167V   26033.17793643 -.00000072  00000+0  97145-5 0  9990
2 58194  43.0043 338.8506 0000851 271.6285  88.4460 15.02537902125610
STARLINK-30827          
1 58195U 23167W   26033.17571918  .00001009  00000+0  89726-4 0  9995
2 58195  43.0053 338.8532 0001251 264.3998  95.6701 15.02536637125618
STARLINK-30798          
1 58196U 23167X   26033.21900562  .00001644  00000+0  13674-3 0  9995
2 58196  43.0051 339.1773 0001602 263.1946  96.8714 15.02539736125618
STARLINK-30762          
1 58197U 23167Y   26033.17904707 -.00000179  00000+0  18376-5 0  9995
2 58197  43.0031 338.8754 0001629 263.4678  96.5979 15.02549297125619
STARLINK-30800          
1 58206U 23170A   26032.43975430  .00001862  00000+0  15292-3 0  9990
2 58206  43.0052  33.1382 0001338 265.9720  94.0970 15.02525663124824
STARLINK-30845          
1 58207U 23170B   26033.06790455  .00000010  00000+0  15836-4 0  9992
2 58207  43.0050  29.2674 0001246 266.6821  93.3878 15.02534385124922
STARLINK-30841          
1 58208U 23170C   26032.98155623  .00001364  00000+0  11603-3 0  9995
2 58208  43.0049  30.3125 0001373 261.0246  99.0441 15.02537742124903
STARLINK-30839          
1 58209U 23170D   26033.29396991  .00000880  00000+0  80163-4 0  9996
2 58209  43.0042  28.3702 0001051 274.0192  86.0530 15.02538729124958
STARLINK-30846          
1 58210U 23170E   26033.03139354 -.00000694  00000+0 -36294-4 0  9999
2 58210  43.0046  29.8395 0001169 267.8863  92.1845 15.02537460124917
STARLINK-30838          
1 58211U 23170F   26033.02139853  .00000998  00000+0  88937-4 0  9999
2 58211  43.0052  29.7689 0001191 269.5428  90.5277 15.02540726124911
