[{"OBJECT_NAME":"STARLINK-30826","OBJECT_ID":"2023-167P","EPOCH":"2026-02-02T04:37:00.674688","MEAN_MOTION":15.02536556,"ECCENTRICITY":8.871e-5,"INCLINATION":43.0035,"RA_OF_ASC_NODE":338.9788,"ARG_OF_PERICENTER":281.0408,"MEAN_ANOMALY":79.0335,"EPHEMERIS_TYPE":0,"CLASSIFICATION_TYPE":"U","NORAD_CAT_ID":58188,"ELEMENT_SET_NO":999,"REV_AT_EPOCH":12561,"BSTAR":6.2037969e-5,"MEAN_MOTION_DOT":6.35e-6,"MEAN_MOTION_DDOT":0},{"OBJECT_NAME":"STARLINK-30796","OBJECT_ID":"2023-167Q","EPOCH":"2026-02-02T04:41:48.135264","MEAN_MOTION":15.02539178,"ECCENTRICITY":0.00013258,"INCLINATION":43.0048,"RA_OF_ASC_NODE":339.0028,"ARG_OF_PERICENTER":268.5024,"MEAN_ANOMALY":91.5667,"EPHEMERIS_TYPE":0,"CLASSIFICATION_TYPE":"U","NORAD_CAT_ID":58189,"ELEMENT_SET_NO":999,"REV_AT_EPOCH":12561,"BSTAR":0.00011448714,"MEAN_MOTION_DOT":1.343e-5,"MEAN_MOTION_DDOT":0},{"OBJECT_NAME":"STARLINK-30820","OBJECT_ID":"2023-167R","EPOCH":"2026-02-02T04:46:35.950944","MEAN_MOTION":15.02534231,"ECCENTRICITY":0.0001082,"INCLINATION":43.004,"RA_OF_ASC_NODE":339.0239,"ARG_OF_PERICENTER":277.4041,"MEAN_ANOMALY":82.6678,"EPHEMERIS_TYPE":0,"CLASSIFICATION_TYPE":"U","NORAD_CAT_ID":58190,"ELEMENT_SET_NO":999,"REV_AT_EPOCH":12561,"BSTAR":6.2299393e-5,"MEAN_MOTION_DOT":6.38e-6,"MEAN_MOTION_DDOT":0},{"OBJECT_NAME":"STARLINK-30785","OBJECT_ID":"2023-167S","EPOCH":"2026-02-02T04:27:25.188480","MEAN_MOTION":15.02537564,"ECCENTRICITY":0.00010934,"INCLINATION":43.0039,"RA_OF_ASC_NODE":338.9286,"ARG_OF_PERICENTER":277.2277,"MEAN_ANOMALY":82.8441,"EPHEMERIS_TYPE":0,"CLASSIFICATION_TYPE":"U","NORAD_CAT_ID":58191,"ELEMENT_SET_NO":999,"REV_AT_EPOCH":12561,"BSTAR":6.4299557e-5,"MEAN_MOTION_DOT":6.65e-6,"MEAN_MOTION_DDOT":0},{"OBJECT_NAME":"STARLINK-30807","OBJECT_ID":"2023-167T","EPOCH":"2026-02-02T04:32:14.394336","MEAN_MOTION":15.02519348,"ECCENTRICITY":9.351e-5,"INCLINATION":43.0029,"RA_OF_ASC_NODE":338.9512,"ARG_OF_PERICENTER":256.3989,"MEAN_ANOMALY":103.6749,"EPHEMERIS_TYPE":0,"CLASSIFICATION_TYPE":"U","NORAD_CAT_ID":58192,"ELEMENT_SET_NO":999,"REV_AT_EPOCH":12561,"BSTAR":0.00087536872,"MEAN_MOTION_DOT":0.00011636,"MEAN_MOTION_DDOT":0},{"OBJECT_NAME":"STARLINK-30822","OBJECT_ID":"2023-167U","EPOCH":"2026-02-02T04:22:37.114464","MEAN_MOTION":15.02542179,"ECCENTRICITY":9.267e-5,"INCLINATION":43.0038,"RA_OF_ASC_NODE":338.9029,"ARG_OF_PERICENTER":268.443,"MEAN_ANOMALY":91.6307,"EPHEMERIS_TYPE":0,"CLASSIFICATION_TYPE":"U","NORAD_CAT_ID":58193,"ELEMENT_SET_NO":999,"REV_AT_EPOCH":12561,"BSTAR":5.5527559e-5,"MEAN_MOTION_DOT":5.47e-6,"MEAN_MOTION_DDOT":0},{"OBJECT_NAME":"STARLINK-30830","OBJECT_ID":"2023-167V","EPOCH":"2026-02-02T04:16:13.707552","MEAN_MOTION":15.02537902,"ECCENTRICITY":8.519e-5,"INCLINATION":43.0043,"RA_OF_ASC_NODE":338.8506,"ARG_OF_PERICENTER":271.6285,"MEAN_ANOMALY":88.446,"EPHEMERIS_TYPE":0,"CLASSIFICATION_TYPE":"U","NORAD_CAT_ID":58194,"ELEMENT_SET_NO":999,"REV_AT_EPOCH":12561,"BSTAR":9.714464e-6,"MEAN_MOTION_DOT":-7.2e-7,"MEAN_MOTION_DDOT":0},{"OBJECT_NAME":"STARLINK-30827","OBJECT_ID":"2023-167W","EPOCH":"2026-02-02T04:13:02.137152","MEAN_MOTION":15.02536637,"ECCENTRICITY":0.00012519,"INCLINATION":43.0053,"RA_OF_ASC_NODE":338.8532,"ARG_OF_PERICENTER":264.3998,"MEAN_ANOMALY":95.6701,"EPHEMERIS_TYPE":0,"CLASSIFICATION_TYPE":"U","NORAD_CAT_ID":58195,"ELEMENT_SET_NO":999,"REV_AT_EPOCH":12561,"BSTAR":8.972556e-5,"MEAN_MOTION_DOT":1.009e-5,"MEAN_MOTION_DDOT":0},{"OBJECT_NAME":"STARLINK-30798","OBJECT_ID":"2023-167X","EPOCH":"2026-02-02T05:15:22.085568","MEAN_MOTION":15.02539736,"ECCENTRICITY":0.00016026,"INCLINATION":43.0051,"RA_OF_ASC_NODE":339.1773,"ARG_OF_PERICENTER":263.1946,"MEAN_ANOMALY":96.8714,"EPHEMERIS_TYPE":0,"CLASSIFICATION_TYPE":"U","NORAD_CAT_ID":58196,"ELEMENT_SET_NO":999,"REV_AT_EPOCH":12561,"BSTAR":0.00013673593,"MEAN_MOTION_DOT":1.644e-5,"MEAN_MOTION_DDOT":0},{"OBJECT_NAME":"STARLINK-30762","OBJECT_ID":"2023-167Y","EPOCH":"2026-02-02T04:17:49.666848","MEAN_MOTION":15.02549297,"ECCENTRICITY":0.00016292,"INCLINATION":43.0031,"RA_OF_ASC_NODE":338.8754,"ARG_OF_PERICENTER":263.4678,"MEAN_ANOMALY":96.5979,"EPHEMERIS_TYPE":0,"CLASSIFICATION_TYPE":"U","NORAD_CAT_ID":58197,"ELEMENT_SET_NO":999,"REV_AT_EPOCH":12561,"BSTAR":1.837552e-6,"MEAN_MOTION_DOT":-1.79e-6,"MEAN_MOTION_DDOT":0},{"OBJECT_NAME":"STARLINK-30800","OBJECT_ID":"2023-170A","EPOCH":"2026-02-01T10:33:14.771520","MEAN_MOTION":15.02525663,"ECCENTRICITY":0.00013384,"INCLINATION":43.0052,"RA_OF_ASC_NODE":33.1382,"ARG_OF_PERICENTER":265.972,"MEAN_ANOMALY":94.097,"EPHEMERIS_TYPE":0,"CLASSIFICATION_TYPE":"U","NORAD_CAT_ID":58206,"ELEMENT_SET_NO":999,"REV_AT_EPOCH":12482,"BSTAR":0.00015292474,"MEAN_MOTION_DOT":1.862e-5,"MEAN_MOTION_DDOT":0},{"OBJECT_NAME":"STARLINK-30845","OBJECT_ID":"2023-170B","EPOCH":"2026-02-02T01:37:46.953120","MEAN_MOTION":15.02534385,"ECCENTRICITY":0.00012463,"INCLINATION":43.005,"RA_OF_ASC_NODE":29.2674,"ARG_OF_PERICENTER":266.6821,"MEAN_ANOMALY":93.3878,"EPHEMERIS_TYPE":0,"CLASSIFICATION_TYPE":"U","NORAD_CAT_ID":58207,"ELEMENT_SET_NO":999,"REV_AT_EPOCH":12492,"BSTAR":1.5836238e-5,"MEAN_MOTION_DOT":1.0e-7,"MEAN_MOTION_DDOT":0},{"OBJECT_NAME":"STARLINK-30841","OBJECT_ID":"2023-170C","EPOCH":"2026-02-01T23:33:26.458272","MEAN_MOTION":15.02537742,"ECCENTRICITY":0.00013735,"INCLINATION":43.0049,"RA_OF_ASC_NODE":30.3125,"ARG_OF_PERICENTER":261.0246,"MEAN_ANOMALY":99.0441,"EPHEMERIS_TYPE":0,"CLASSIFICATION_TYPE":"U","NORAD_CAT_ID":58208,"ELEMENT_SET_NO":999,"REV_AT_EPOCH":12490,"BSTAR":0.00011603405,"MEAN_MOTION_DOT":1.364e-5,"MEAN_MOTION_DDOT":0},{"OBJECT_NAME":"STARLINK-30839","OBJECT_ID":"2023-170D","EPOCH":"2026-02-02T07:03:19.000224","MEAN_MOTION":15.02538729,"ECCENTRICITY":0.0001051,"INCLINATION":43.0042,"RA_OF_ASC_NODE":28.3702,"ARG_OF_PERICENTER":274.0192,"MEAN_ANOMALY":86.053,"EPHEMERIS_TYPE":0,"CLASSIFICATION_TYPE":"U","NORAD_CAT_ID":58209,"ELEMENT_SET_NO":999,"REV_AT_EPOCH":12495,"BSTAR":8.016322e-5,"MEAN_MOTION_DOT":8.8e-6,"MEAN_MOTION_DDOT":0},{"OBJECT_NAME":"STARLINK-30846","OBJECT_ID":"2023-170E","EPOCH":"2026-02-02T00:45:12.401856","MEAN_MOTION":15.0253746,"ECCENTRICITY":0.0001169,"INCLINATION":43.0046,"RA_OF_ASC_NODE":29.8395,"ARG_OF_PERICENTER":267.8863,"MEAN_ANOMALY":92.1845,"EPHEMERIS_TYPE":0,"CLASSIFICATION_TYPE":"U","NORAD_CAT_ID":58210,"ELEMENT_SET_NO":999,"REV_AT_EPOCH":12491,"BSTAR":-3.6293744e-5,"MEAN_MOTION_DOT":-6.94e-6,"MEAN_MOTION_DDOT":0},{"OBJECT_NAME":"STARLINK-30838","OBJECT_ID":"2023-170F","EPOCH":"2026-02-02T00:30:48.832992","MEAN_MOTION":15.02540726,"ECCENTRICITY":0.00011917,"INCLINATION":43.0052,"RA_OF_ASC_NODE":29.7689,"ARG_OF_PERICENTER":269.5428,"MEAN_ANOMALY":90.5277,"EPHEMERIS_TYPE":0,"CLASSIFICATION_TYPE":"U","NORAD_CAT_ID":58211,"ELEMENT_SET_NO":999,"REV_AT_EPOCH":12491,"BSTAR":8.8936769e-5,"MEAN_MOTION_DOT":9.98e-6,"MEAN_MOTION_DDOT":0}]
